AMOS-17                 
1 44479U 19050A   26061.73410129  .00000092  00000+0  00000+0 0  9994
2 44479   0.0383 290.8357 0001653  43.0647 107.8562  1.00270143 24112
